{
  "type": "FeatureCollection",
  "features": [
    {
      "type": "Feature",
      "properties": {
        "norad_id": 33723,
        "name": "FENGYUN 1C DEB",
        "group": "fengyun-1c-debris",
        "lat": 45.29371481129819,
        "lon": -112.08772154673159,
        "alt_km": 897.5055646862793,
        "timestamp": "2025-12-04T03:47:54.830164+00:00",
        "meta_object_name": "FENGYUN 1C DEB",
        "meta_object_id": "1999-025DHL",
        "meta_epoch": "2025-11-30T11:06:07.081344",
        "meta_mean_motion": 14.13160086,
        "meta_eccentricity": 0.00983728,
        "meta_inclination": 99.1553,
        "meta_ra_of_asc_node": 54.7561,
        "meta_arg_of_pericenter": 5.6896,
        "meta_mean_anomaly": 56.2557,
        "meta_ephemeris_type": 0,
        "meta_classification_type": "U",
        "meta_norad_cat_id": 33723,
        "meta_element_set_no": 999,
        "meta_rev_at_epoch": 63450,
        "meta_bstar": 0.0020390753,
        "meta_mean_motion_dot": 3.948e-05,
        "meta_mean_motion_ddot": 0,
        "tle_line1": "1 33723U 99025DHL 25334.46258196  .00003948  00000+0  20391-2 0  9991",
        "tle_line2": "2 33723  99.1553  54.7561 0098372   5.6896  56.2557 14.13160086634501"
      },
      "geometry": {
        "type": "Point",
        "coordinates": [
          -112.08772154673159,
          45.29371481129819
        ]
      }
    },
    {
      "type": "Feature",
      "properties": {
        "norad_id": 33724,
        "name": "FENGYUN 1C DEB",
        "group": "fengyun-1c-debris",
        "lat": 29.663638163442975,
        "lon": -16.237604454309185,
        "alt_km": 844.4855302845735,
        "timestamp": "2025-12-04T03:47:54.830174+00:00",
        "meta_object_name": "FENGYUN 1C DEB",
        "meta_object_id": "1999-025DHM",
        "meta_epoch": "2025-12-01T18:59:47.545728",
        "meta_mean_motion": 14.19612162,
        "meta_eccentricity": 0.00269319,
        "meta_inclination": 98.6044,
        "meta_ra_of_asc_node": 346.4099,
        "meta_arg_of_pericenter": 213.4232,
        "meta_mean_anomaly": 328.0159,
        "meta_ephemeris_type": 0,
        "meta_classification_type": "U",
        "meta_norad_cat_id": 33724,
        "meta_element_set_no": 999,
        "meta_rev_at_epoch": 93806,
        "meta_bstar": 0.00047527563,
        "meta_mean_motion_dot": 9.64e-06,
        "meta_mean_motion_ddot": 0,
        "tle_line1": "1 33724U 99025DHM 25335.79152252  .00000964  00000+0  47528-3 0  9992",
        "tle_line2": "2 33724  98.6044 346.4099 0026931 213.4232 328.0159 14.19612162938062"
      },
      "geometry": {
        "type": "Point",
        "coordinates": [
          -16.237604454309185,
          29.663638163442975
        ]
      }
    },
    {
      "type": "Feature",
      "properties": {
        "norad_id": 33726,
        "name": "FENGYUN 1C DEB",
        "group": "fengyun-1c-debris",
        "lat": -6.917469957933114,
        "lon": -78.41415037515817,
        "alt_km": 939.09072421166,
        "timestamp": "2025-12-04T03:47:54.830184+00:00",
        "meta_object_name": "FENGYUN 1C DEB",
        "meta_object_id": "1999-025DHP",
        "meta_epoch": "2025-12-02T15:21:09.344736",
        "meta_mean_motion": 14.14283655,
        "meta_eccentricity": 0.01932435,
        "meta_inclination": 98.6386,
        "meta_ra_of_asc_node": 101.1732,
        "meta_arg_of_pericenter": 59.9303,
        "meta_mean_anomaly": 317.8672,
        "meta_ephemeris_type": 0,
        "meta_classification_type": "U",
        "meta_norad_cat_id": 33726,
        "meta_element_set_no": 999,
        "meta_rev_at_epoch": 91789,
        "meta_bstar": 0.00041689191,
        "meta_mean_motion_dot": 9.11e-06,
        "meta_mean_motion_ddot": 0,
        "tle_line1": "1 33726U 99025DHP 25336.63969149  .00000911  00000+0  41689-3 0  9993",
        "tle_line2": "2 33726  98.6386 101.1732 0193243  59.9303 317.8672 14.14283655917896"
      },
      "geometry": {
        "type": "Point",
        "coordinates": [
          -78.41415037515817,
          -6.917469957933114
        ]
      }
    },
    {
      "type": "Feature",
      "properties": {
        "norad_id": 33728,
        "name": "FENGYUN 1C DEB",
        "group": "fengyun-1c-debris",
        "lat": -53.40272746099538,
        "lon": -159.45771866174164,
        "alt_km": 495.4559917338138,
        "timestamp": "2025-12-04T03:47:54.830194+00:00",
        "meta_object_name": "FENGYUN 1C DEB",
        "meta_object_id": "1999-025DHR",
        "meta_epoch": "2025-12-03T02:36:27.776448",
        "meta_mean_motion": 14.9242061,
        "meta_eccentricity": 0.01477094,
        "meta_inclination": 98.9821,
        "meta_ra_of_asc_node": 31.6441,
        "meta_arg_of_pericenter": 246.0941,
        "meta_mean_anomaly": 112.4742,
        "meta_ephemeris_type": 0,
        "meta_classification_type": "U",
        "meta_norad_cat_id": 33728,
        "meta_element_set_no": 999,
        "meta_rev_at_epoch": 98156,
        "meta_bstar": 0.00081217474,
        "meta_mean_motion_dot": 0.00010213,
        "meta_mean_motion_ddot": 0,
        "tle_line1": "1 33728U 99025DHR 25337.10865482  .00010213  00000+0  81217-3 0  9990",
        "tle_line2": "2 33728  98.9821  31.6441 0147709 246.0941 112.4742 14.92420610981564"
      },
      "geometry": {
        "type": "Point",
        "coordinates": [
          -159.45771866174164,
          -53.40272746099538
        ]
      }
    },
    {
      "type": "Feature",
      "properties": {
        "norad_id": 33730,
        "name": "FENGYUN 1C DEB",
        "group": "fengyun-1c-debris",
        "lat": -34.18592731942379,
        "lon": 41.29668884022539,
        "alt_km": 680.301291905088,
        "timestamp": "2025-12-04T03:47:54.830204+00:00",
        "meta_object_name": "FENGYUN 1C DEB",
        "meta_object_id": "1999-025DHT",
        "meta_epoch": "2025-12-03T09:54:11.245824",
        "meta_mean_motion": 14.63205109,
        "meta_eccentricity": 0.0040103,
        "meta_inclination": 99.0564,
        "meta_ra_of_asc_node": 34.2592,
        "meta_arg_of_pericenter": 40.0931,
        "meta_mean_anomaly": 320.3215,
        "meta_ephemeris_type": 0,
        "meta_classification_type": "U",
        "meta_norad_cat_id": 33730,
        "meta_element_set_no": 999,
        "meta_rev_at_epoch": 95543,
        "meta_bstar": 0.0021836,
        "meta_mean_motion_dot": 0.00011334,
        "meta_mean_motion_ddot": 0,
        "tle_line1": "1 33730U 99025DHT 25337.41263016  .00011334  00000+0  21836-2 0  9997",
        "tle_line2": "2 33730  99.0564  34.2592 0040103  40.0931 320.3215 14.63205109955434"
      },
      "geometry": {
        "type": "Point",
        "coordinates": [
          41.29668884022539,
          -34.18592731942379
        ]
      }
    },
    {
      "type": "Feature",
      "properties": {
        "norad_id": 33731,
        "name": "FENGYUN 1C DEB",
        "group": "fengyun-1c-debris",
        "lat": 45.51243029970206,
        "lon": -170.07949962440318,
        "alt_km": 850.1929805770169,
        "timestamp": "2025-12-04T03:47:54.830214+00:00",
        "meta_object_name": "FENGYUN 1C DEB",
        "meta_object_id": "1999-025DHU",
        "meta_epoch": "2025-11-28T07:46:14.335392",
        "meta_mean_motion": 13.95266632,
        "meta_eccentricity": 0.01296296,
        "meta_inclination": 99.4454,
        "meta_ra_of_asc_node": 354.1889,
        "meta_arg_of_pericenter": 95.0981,
        "meta_mean_anomaly": 266.4989,
        "meta_ephemeris_type": 0,
        "meta_classification_type": "U",
        "meta_norad_cat_id": 33731,
        "meta_element_set_no": 999,
        "meta_rev_at_epoch": 90248,
        "meta_bstar": 0.00078625858,
        "meta_mean_motion_dot": 1.095e-05,
        "meta_mean_motion_ddot": 0,
        "tle_line1": "1 33731U 99025DHU 25332.32377703  .00001095  00000+0  78626-3 0  9995",
        "tle_line2": "2 33731  99.4454 354.1889 0129629  95.0981 266.4989 13.95266632902483"
      },
      "geometry": {
        "type": "Point",
        "coordinates": [
          -170.07949962440318,
          45.51243029970206
        ]
      }
    },
    {
      "type": "Feature",
      "properties": {
        "norad_id": 33733,
        "name": "FENGYUN 1C DEB",
        "group": "fengyun-1c-debris",
        "lat": 80.62167208020682,
        "lon": -40.883956618392524,
        "alt_km": 793.6852274380408,
        "timestamp": "2025-12-04T03:47:54.830224+00:00",
        "meta_object_name": "FENGYUN 1C DEB",
        "meta_object_id": "1999-025DHW",
        "meta_epoch": "2025-12-01T05:07:55.247232",
        "meta_mean_motion": 14.3062472,
        "meta_eccentricity": 0.0081329,
        "meta_inclination": 99.0999,
        "meta_ra_of_asc_node": 60.0061,
        "meta_arg_of_pericenter": 202.8537,
        "meta_mean_anomaly": 213.8436,
        "meta_ephemeris_type": 0,
        "meta_classification_type": "U",
        "meta_norad_cat_id": 33733,
        "meta_element_set_no": 999,
        "meta_rev_at_epoch": 90283,
        "meta_bstar": 0.0047064,
        "meta_mean_motion_dot": 0.00012718,
        "meta_mean_motion_ddot": 0,
        "tle_line1": "1 33733U 99025DHW 25335.21383388  .00012718  00000+0  47064-2 0  9999",
        "tle_line2": "2 33733  99.0999  60.0061 0081329 202.8537 213.8436 14.30624720902837"
      },
      "geometry": {
        "type": "Point",
        "coordinates": [
          -40.883956618392524,
          80.62167208020682
        ]
      }
    }
  ]
}